<?xml version="1.0" encoding="UTF-8"?>
<ndm xmlns:xsi="http://www.w3.org/2001/XMLSchema-instance" xsi:noNamespaceSchemaLocation="https://sanaregistry.org/r/ndmxml_unqualified/ndmxml-2.0.0-master-2.0.xsd">
<omm id="CCSDS_OMM_VERS" version="2.0">
<header><CREATION_DATE/><ORIGINATOR/></header><body><segment><metadata><OBJECT_NAME>IRIDIUM 26</OBJECT_NAME><OBJECT_ID>1997-043A</OBJECT_ID><CENTER_NAME>EARTH</CENTER_NAME><REF_FRAME>TEME</REF_FRAME><TIME_SYSTEM>UTC</TIME_SYSTEM><MEAN_ELEMENT_THEORY>SGP4</MEAN_ELEMENT_THEORY></metadata><data><meanElements><EPOCH>2025-06-22T01:26:19.874400</EPOCH><MEAN_MOTION>14.37149292</MEAN_MOTION><ECCENTRICITY>.0002474</ECCENTRICITY><INCLINATION>86.3958</INCLINATION><RA_OF_ASC_NODE>108.5762</RA_OF_ASC_NODE><ARG_OF_PERICENTER>84.1686</ARG_OF_PERICENTER><MEAN_ANOMALY>275.9793</MEAN_ANOMALY></meanElements><tleParameters><EPHEMERIS_TYPE>0</EPHEMERIS_TYPE><CLASSIFICATION_TYPE>U</CLASSIFICATION_TYPE><NORAD_CAT_ID>24903</NORAD_CAT_ID><ELEMENT_SET_NO>999</ELEMENT_SET_NO><REV_AT_EPOCH>45791</REV_AT_EPOCH><BSTAR>.90636E-4</BSTAR><MEAN_MOTION_DOT>.289E-5</MEAN_MOTION_DOT><MEAN_MOTION_DDOT>0</MEAN_MOTION_DDOT></tleParameters></data></segment></body></omm>
<omm id="CCSDS_OMM_VERS" version="2.0">
<header><CREATION_DATE/><ORIGINATOR/></header><body><segment><metadata><OBJECT_NAME>IRIDIUM 22</OBJECT_NAME><OBJECT_ID>1997-043E</OBJECT_ID><CENTER_NAME>EARTH</CENTER_NAME><REF_FRAME>TEME</REF_FRAME><TIME_SYSTEM>UTC</TIME_SYSTEM><MEAN_ELEMENT_THEORY>SGP4</MEAN_ELEMENT_THEORY></metadata><data><meanElements><EPOCH>2025-06-21T13:49:00.193152</EPOCH><MEAN_MOTION>14.35961171</MEAN_MOTION><ECCENTRICITY>.000228</ECCENTRICITY><INCLINATION>86.3963</INCLINATION><RA_OF_ASC_NODE>112.3227</RA_OF_ASC_NODE><ARG_OF_PERICENTER>83.8382</ARG_OF_PERICENTER><MEAN_ANOMALY>276.3075</MEAN_ANOMALY></meanElements><tleParameters><EPHEMERIS_TYPE>0</EPHEMERIS_TYPE><CLASSIFICATION_TYPE>U</CLASSIFICATION_TYPE><NORAD_CAT_ID>24907</NORAD_CAT_ID><ELEMENT_SET_NO>999</ELEMENT_SET_NO><REV_AT_EPOCH>45740</REV_AT_EPOCH><BSTAR>.80144E-4</BSTAR><MEAN_MOTION_DOT>.252E-5</MEAN_MOTION_DOT><MEAN_MOTION_DDOT>0</MEAN_MOTION_DDOT></tleParameters></data></segment></body></omm>
<omm id="CCSDS_OMM_VERS" version="2.0">
<header><CREATION_DATE/><ORIGINATOR/></header><body><segment><metadata><OBJECT_NAME>DUMMY MASS 1</OBJECT_NAME><OBJECT_ID>1997-048A</OBJECT_ID><CENTER_NAME>EARTH</CENTER_NAME><REF_FRAME>TEME</REF_FRAME><TIME_SYSTEM>UTC</TIME_SYSTEM><MEAN_ELEMENT_THEORY>SGP4</MEAN_ELEMENT_THEORY></metadata><data><meanElements><EPOCH>2025-06-21T07:41:13.484544</EPOCH><MEAN_MOTION>14.86989571</MEAN_MOTION><ECCENTRICITY>.0008619</ECCENTRICITY><INCLINATION>86.3355</INCLINATION><RA_OF_ASC_NODE>133.4187</RA_OF_ASC_NODE><ARG_OF_PERICENTER>121.0852</ARG_OF_PERICENTER><MEAN_ANOMALY>239.1220</MEAN_ANOMALY></meanElements><tleParameters><EPHEMERIS_TYPE>0</EPHEMERIS_TYPE><CLASSIFICATION_TYPE>U</CLASSIFICATION_TYPE><NORAD_CAT_ID>24925</NORAD_CAT_ID><ELEMENT_SET_NO>999</ELEMENT_SET_NO><REV_AT_EPOCH>50574</REV_AT_EPOCH><BSTAR>.33877E-4</BSTAR><MEAN_MOTION_DOT>.332E-5</MEAN_MOTION_DOT><MEAN_MOTION_DDOT>0</MEAN_MOTION_DDOT></tleParameters></data></segment></body></omm>
<omm id="CCSDS_OMM_VERS" version="2.0">
<header><CREATION_DATE/><ORIGINATOR/></header><body><segment><metadata><OBJECT_NAME>DUMMY MASS 2</OBJECT_NAME><OBJECT_ID>1997-048B</OBJECT_ID><CENTER_NAME>EARTH</CENTER_NAME><REF_FRAME>TEME</REF_FRAME><TIME_SYSTEM>UTC</TIME_SYSTEM><MEAN_ELEMENT_THEORY>SGP4</MEAN_ELEMENT_THEORY></metadata><data><meanElements><EPOCH>2025-06-21T14:52:18.349248</EPOCH><MEAN_MOTION>14.86741780</MEAN_MOTION><ECCENTRICITY>.000912</ECCENTRICITY><INCLINATION>86.3356</INCLINATION><RA_OF_ASC_NODE>134.8880</RA_OF_ASC_NODE><ARG_OF_PERICENTER>130.3624</ARG_OF_PERICENTER><MEAN_ANOMALY>229.8398</MEAN_ANOMALY></meanElements><tleParameters><EPHEMERIS_TYPE>0</EPHEMERIS_TYPE><CLASSIFICATION_TYPE>U</CLASSIFICATION_TYPE><NORAD_CAT_ID>24926</NORAD_CAT_ID><ELEMENT_SET_NO>999</ELEMENT_SET_NO><REV_AT_EPOCH>50556</REV_AT_EPOCH><BSTAR>.32747E-4</BSTAR><MEAN_MOTION_DOT>.32E-5</MEAN_MOTION_DOT><MEAN_MOTION_DDOT>0</MEAN_MOTION_DDOT></tleParameters></data></segment></body></omm>
<omm id="CCSDS_OMM_VERS" version="2.0">
<header><CREATION_DATE/><ORIGINATOR/></header><body><segment><metadata><OBJECT_NAME>IRIDIUM 29</OBJECT_NAME><OBJECT_ID>1997-051A</OBJECT_ID><CENTER_NAME>EARTH</CENTER_NAME><REF_FRAME>TEME</REF_FRAME><TIME_SYSTEM>UTC</TIME_SYSTEM><MEAN_ELEMENT_THEORY>SGP4</MEAN_ELEMENT_THEORY></metadata><data><meanElements><EPOCH>2025-06-21T21:01:01.058016</EPOCH><MEAN_MOTION>14.36471666</MEAN_MOTION><ECCENTRICITY>.0002096</ECCENTRICITY><INCLINATION>86.3971</INCLINATION><RA_OF_ASC_NODE>141.9315</RA_OF_ASC_NODE><ARG_OF_PERICENTER>87.7943</ARG_OF_PERICENTER><MEAN_ANOMALY>272.3494</MEAN_ANOMALY></meanElements><tleParameters><EPHEMERIS_TYPE>0</EPHEMERIS_TYPE><CLASSIFICATION_TYPE>U</CLASSIFICATION_TYPE><NORAD_CAT_ID>24944</NORAD_CAT_ID><ELEMENT_SET_NO>999</ELEMENT_SET_NO><REV_AT_EPOCH>45394</REV_AT_EPOCH><BSTAR>.10763E-3</BSTAR><MEAN_MOTION_DOT>.335E-5</MEAN_MOTION_DOT><MEAN_MOTION_DDOT>0</MEAN_MOTION_DDOT></tleParameters></data></segment></body></omm>
<omm id="CCSDS_OMM_VERS" version="2.0">
<header><CREATION_DATE/><ORIGINATOR/></header><body><segment><metadata><OBJECT_NAME>IRIDIUM 33</OBJECT_NAME><OBJECT_ID>1997-051C</OBJECT_ID><CENTER_NAME>EARTH</CENTER_NAME><REF_FRAME>TEME</REF_FRAME><TIME_SYSTEM>UTC</TIME_SYSTEM><MEAN_ELEMENT_THEORY>SGP4</MEAN_ELEMENT_THEORY></metadata><data><meanElements><EPOCH>2025-06-21T15:40:59.369952</EPOCH><MEAN_MOTION>14.34895315</MEAN_MOTION><ECCENTRICITY>.000998</ECCENTRICITY><INCLINATION>86.3886</INCLINATION><RA_OF_ASC_NODE>141.2852</RA_OF_ASC_NODE><ARG_OF_PERICENTER>69.3693</ARG_OF_PERICENTER><MEAN_ANOMALY>290.8572</MEAN_ANOMALY></meanElements><tleParameters><EPHEMERIS_TYPE>0</EPHEMERIS_TYPE><CLASSIFICATION_TYPE>U</CLASSIFICATION_TYPE><NORAD_CAT_ID>24946</NORAD_CAT_ID><ELEMENT_SET_NO>999</ELEMENT_SET_NO><REV_AT_EPOCH>45338</REV_AT_EPOCH><BSTAR>.83354E-4</BSTAR><MEAN_MOTION_DOT>.257E-5</MEAN_MOTION_DOT><MEAN_MOTION_DDOT>0</MEAN_MOTION_DDOT></tleParameters></data></segment></body></omm>
<omm id="CCSDS_OMM_VERS" version="2.0">
<header><CREATION_DATE/><ORIGINATOR/></header><body><segment><metadata><OBJECT_NAME>IRIDIUM 28</OBJECT_NAME><OBJECT_ID>1997-051E</OBJECT_ID><CENTER_NAME>EARTH</CENTER_NAME><REF_FRAME>TEME</REF_FRAME><TIME_SYSTEM>UTC</TIME_SYSTEM><MEAN_ELEMENT_THEORY>SGP4</MEAN_ELEMENT_THEORY></metadata><data><meanElements><EPOCH>2025-06-21T20:18:56.869920</EPOCH><MEAN_MOTION>14.37389315</MEAN_MOTION><ECCENTRICITY>.0002779</ECCENTRICITY><INCLINATION>86.3975</INCLINATION><RA_OF_ASC_NODE>139.4579</RA_OF_ASC_NODE><ARG_OF_PERICENTER>84.2705</ARG_OF_PERICENTER><MEAN_ANOMALY>275.8809</MEAN_ANOMALY></meanElements><tleParameters><EPHEMERIS_TYPE>0</EPHEMERIS_TYPE><CLASSIFICATION_TYPE>U</CLASSIFICATION_TYPE><NORAD_CAT_ID>24948</NORAD_CAT_ID><ELEMENT_SET_NO>999</ELEMENT_SET_NO><REV_AT_EPOCH>45451</REV_AT_EPOCH><BSTAR>.89978E-4</BSTAR><MEAN_MOTION_DOT>.288E-5</MEAN_MOTION_DOT><MEAN_MOTION_DDOT>0</MEAN_MOTION_DDOT></tleParameters></data></segment></body></omm>
<omm id="CCSDS_OMM_VERS" version="2.0">
<header><CREATION_DATE/><ORIGINATOR/></header><body><segment><metadata><OBJECT_NAME>IRIDIUM 36</OBJECT_NAME><OBJECT_ID>1997-056C</OBJECT_ID><CENTER_NAME>EARTH</CENTER_NAME><REF_FRAME>TEME</REF_FRAME><TIME_SYSTEM>UTC</TIME_SYSTEM><MEAN_ELEMENT_THEORY>SGP4</MEAN_ELEMENT_THEORY></metadata><data><meanElements><EPOCH>2025-06-21T17:44:53.494656</EPOCH><MEAN_MOTION>14.37613238</MEAN_MOTION><ECCENTRICITY>.0002364</ECCENTRICITY><INCLINATION>86.3987</INCLINATION><RA_OF_ASC_NODE>171.0864</RA_OF_ASC_NODE><ARG_OF_PERICENTER>82.6642</ARG_OF_PERICENTER><MEAN_ANOMALY>277.4824</MEAN_ANOMALY></meanElements><tleParameters><EPHEMERIS_TYPE>0</EPHEMERIS_TYPE><CLASSIFICATION_TYPE>U</CLASSIFICATION_TYPE><NORAD_CAT_ID>24967</NORAD_CAT_ID><ELEMENT_SET_NO>999</ELEMENT_SET_NO><REV_AT_EPOCH>45287</REV_AT_EPOCH><BSTAR>.98663E-4</BSTAR><MEAN_MOTION_DOT>.316E-5</MEAN_MOTION_DOT><MEAN_MOTION_DDOT>0</MEAN_MOTION_DDOT></tleParameters></data></segment></body></omm>

</ndm>
