IRIDIUM 26              
1 24903U 97043A   25173.05995225  .00000289  00000+0  90636-4 0  9992
2 24903  86.3958 108.5762 0002474  84.1686 275.9793 14.37149292457918
IRIDIUM 22              
1 24907U 97043E   25172.57569668  .00000252  00000+0  80144-4 0  9993
2 24907  86.3963 112.3227 0002280  83.8382 276.3075 14.35961171457409
DUMMY MASS 1            
1 24925U 97048A   25172.32029496  .00000332  00000+0  33877-4 0  9991
2 24925  86.3355 133.4187 0008619 121.0852 239.1220 14.86989571505742
DUMMY MASS 2            
1 24926U 97048B   25172.61965682  .00000320  00000+0  32747-4 0  9992
2 24926  86.3356 134.8880 0009120 130.3624 229.8398 14.86741780505567
IRIDIUM 29              
1 24944U 97051A   25172.87570669  .00000335  00000+0  10763-3 0  9990
2 24944  86.3971 141.9315 0002096  87.7943 272.3494 14.36471666453948
IRIDIUM 33              
1 24946U 97051C   25172.65346493  .00000257  00000+0  83354-4 0  9994
2 24946  86.3886 141.2852 0009980  69.3693 290.8572 14.34895315453380
IRIDIUM 28              
1 24948U 97051E   25172.84649155  .00000288  00000+0  89978-4 0  9990
2 24948  86.3975 139.4579 0002779  84.2705 275.8809 14.37389315454518
IRIDIUM 36              
1 24967U 97056C   25172.73950804  .00000316  00000+0  98663-4 0  9993
2 24967  86.3987 171.0864 0002364  82.6642 277.4824 14.37613238452879
